{"type": "FeatureCollection", "features": [ {"type": "Feature", "properties": {"norad_id": 38552, "name": "METEOSAT-10 (MSG-3)", "group": "weather", "lat": 4.270951377863929, "lon": 152.72332151324454, "alt_km": 35793.09808513549, "timestamp": "2025-12-26T03:50:11.729902+00:00", "meta": {"OBJECT_NAME": "METEOSAT-10 (MSG-3)", "OBJECT_ID": "2012-035B", "EPOCH": "2025-12-25T04:23:21.555168", "MEAN_MOTION": 1.00266615, "ECCENTRICITY": 0.0001469, "INCLINATION": 4.256, "RA_OF_ASC_NODE": 61.6882, "ARG_OF_PERICENTER": 266.4043, "MEAN_ANOMALY": 191.9794, "EPHEMERIS_TYPE": 0, "CLASSIFICATION_TYPE": "U", "NORAD_CAT_ID": 38552, "ELEMENT_SET_NO": 999, "REV_AT_EPOCH": 4911, "BSTAR": 0, "MEAN_MOTION_DOT": 1.4e-07, "MEAN_MOTION_DDOT": 0}, "tle": {"line1": "1 38552U 12035B   25359.18288837  .00000014  00000+0  00000+0 0  9996", "line2": "2 38552   4.2560  61.6882 0001469 266.4043 191.9794  1.00266615 49110"}}, "geometry": {"type": "Point", "coordinates": [152.72332151324454, 4.270951377863929]}}, {"type": "Feature", "properties": {"norad_id": 38771, "name": "METOP-B", "group": "weather", "lat": -38.74465909942676, "lon": 56.92943690477688, "alt_km": 829.1253581607989, "timestamp": "2025-12-26T03:50:11.729913+00:00", "meta": {"OBJECT_NAME": "METOP-B", "OBJECT_ID": "2012-049A", "EPOCH": "2025-12-25T19:34:26.518080", "MEAN_MOTION": 14.21413214, "ECCENTRICITY": 0.0003282, "INCLINATION": 98.6781, "RA_OF_ASC_NODE": 49.5516, "ARG_OF_PERICENTER": 116.929, "MEAN_ANOMALY": 243.2223, "EPHEMERIS_TYPE": 0, "CLASSIFICATION_TYPE": "U", "NORAD_CAT_ID": 38771, "ELEMENT_SET_NO": 999, "REV_AT_EPOCH": 68863, "BSTAR": 8.1632e-05, "MEAN_MOTION_DOT": 1.35e-06, "MEAN_MOTION_DDOT": 0}, "tle": {"line1": "1 38771U 12049A   25359.81558470  .00000135  00000+0  81632-4 0  9996", "line2": "2 38771  98.6781  49.5516 0003282 116.9290 243.2223 14.21413214688632"}}, "geometry": {"type": "Point", "coordinates": [56.92943690477688, -38.74465909942676]}}, {"type": "Feature", "properties": {"norad_id": 39216, "name": "INSAT-3D", "group": "weather", "lat": -0.4555259203472713, "lon": -77.98864750623497, "alt_km": 35779.424497510285, "timestamp": "2025-12-26T03:50:11.729926+00:00", "meta": {"OBJECT_NAME": "INSAT-3D", "OBJECT_ID": "2013-038B", "EPOCH": "2025-12-25T12:13:38.614080", "MEAN_MOTION": 1.00274026, "ECCENTRICITY": 0.0001916, "INCLINATION": 1.4759, "RA_OF_ASC_NODE": 84.8528, "ARG_OF_PERICENTER": 156.7609, "MEAN_ANOMALY": 165.6101, "EPHEMERIS_TYPE": 0, "CLASSIFICATION_TYPE": "U", "NORAD_CAT_ID": 39216, "ELEMENT_SET_NO": 999, "REV_AT_EPOCH": 4533, "BSTAR": 0, "MEAN_MOTION_DOT": -3.18e-06, "MEAN_MOTION_DDOT": 0}, "tle": {"line1": "1 39216U 13038B   25359.50947470 -.00000318  00000+0  00000+0 0  9997", "line2": "2 39216   1.4759  84.8528 0001916 156.7609 165.6101  1.00274026 45332"}}, "geometry": {"type": "Point", "coordinates": [-77.98864750623497, -0.4555259203472713]}}, {"type": "Feature", "properties": {"norad_id": 39260, "name": "FENGYUN 3C", "group": "weather", "lat": -66.43751085891056, "lon": -2.8160918578438823, "alt_km": 854.766303712463, "timestamp": "2025-12-26T03:50:11.729937+00:00", "meta": {"OBJECT_NAME": "FENGYUN 3C", "OBJECT_ID": "2013-052A", "EPOCH": "2025-12-25T21:22:22.674144", "MEAN_MOTION": 14.15700248, "ECCENTRICITY": 0.0015018, "INCLINATION": 98.4779, "RA_OF_ASC_NODE": 336.9287, "ARG_OF_PERICENTER": 158.1855, "MEAN_ANOMALY": 201.9962, "EPHEMERIS_TYPE": 0, "CLASSIFICATION_TYPE": "U", "NORAD_CAT_ID": 39260, "ELEMENT_SET_NO": 999, "REV_AT_EPOCH": 63404, "BSTAR": 8.0877e-05, "MEAN_MOTION_DOT": 1.18e-06, "MEAN_MOTION_DDOT": 0}, "tle": {"line1": "1 39260U 13052A   25359.89054021  .00000118  00000+0  80877-4 0  9997", "line2": "2 39260  98.4779 336.9287 0015018 158.1855 201.9962 14.15700248634040"}}, "geometry": {"type": "Point", "coordinates": [-2.8160918578438823, -66.43751085891056]}}, {"type": "Feature", "properties": {"norad_id": 40069, "name": "METEOR-M 2", "group": "weather", "lat": -7.970019951797961, "lon": 156.03184516956335, "alt_km": 820.6954877847656, "timestamp": "2025-12-26T03:50:11.729949+00:00", "meta": {"OBJECT_NAME": "METEOR-M 2", "OBJECT_ID": "2014-037A", "EPOCH": "2025-12-25T21:53:13.140096", "MEAN_MOTION": 14.21391861, "ECCENTRICITY": 0.0005685, "INCLINATION": 98.4921, "RA_OF_ASC_NODE": 336.992, "ARG_OF_PERICENTER": 169.0219, "MEAN_ANOMALY": 191.1084, "EPHEMERIS_TYPE": 0, "CLASSIFICATION_TYPE": "U", "NORAD_CAT_ID": 40069, "ELEMENT_SET_NO": 999, "REV_AT_EPOCH": 59470, "BSTAR": 0.0001182, "MEAN_MOTION_DOT": 2.16e-06, "MEAN_MOTION_DDOT": 0}, "tle": {"line1": "1 40069U 14037A   25359.91195764  .00000216  00000+0  11820-3 0  9993", "line2": "2 40069  98.4921 336.9920 0005685 169.0219 191.1084 14.21391861594703"}}, "geometry": {"type": "Point", "coordinates": [156.03184516956335, -7.970019951797961]}}, {"type": "Feature", "properties": {"norad_id": 40267, "name": "HIMAWARI-8", "group": "weather", "lat": 0.020572019805541502, "lon": -66.8849740309064, "alt_km": 35782.298279414856, "timestamp": "2025-12-26T03:50:11.729960+00:00", "meta": {"OBJECT_NAME": "HIMAWARI-8", "OBJECT_ID": "2014-060A", "EPOCH": "2025-12-25T18:52:08.830848", "MEAN_MOTION": 1.00270926, "ECCENTRICITY": 9.82e-05, "INCLINATION": 0.043, "RA_OF_ASC_NODE": 197.7333, "ARG_OF_PERICENTER": 107.2071, "MEAN_ANOMALY": 213.3047, "EPHEMERIS_TYPE": 0, "CLASSIFICATION_TYPE": "U", "NORAD_CAT_ID": 40267, "ELEMENT_SET_NO": 999, "REV_AT_EPOCH": 4102, "BSTAR": 0, "MEAN_MOTION_DOT": -2.54e-06, "MEAN_MOTION_DDOT": 0}, "tle": {"line1": "1 40267U 14060A   25359.78621332 -.00000254  00000+0  00000+0 0  9996", "line2": "2 40267   0.0430 197.7333 0000982 107.2071 213.3047  1.00270926 41022"}}, "geometry": {"type": "Point", "coordinates": [-66.8849740309064, 0.020572019805541502]}}, {"type": "Feature", "properties": {"norad_id": 40367, "name": "FENGYUN 2G", "group": "weather", "lat": 0.2761419375791793, "lon": -108.25584576228157, "alt_km": 35776.0411607927, "timestamp": "2025-12-26T03:50:11.729972+00:00", "meta": {"OBJECT_NAME": "FENGYUN 2G", "OBJECT_ID": "2014-090A", "EPOCH": "2025-12-25T18:56:24.512640", "MEAN_MOTION": 1.00281963, "ECCENTRICITY": 0.0001712, "INCLINATION": 5.1984, "RA_OF_ASC_NODE": 74.9353, "ARG_OF_PERICENTER": 171.7159, "MEAN_ANOMALY": 231.2546, "EPHEMERIS_TYPE": 0, "CLASSIFICATION_TYPE": "U", "NORAD_CAT_ID": 40367, "ELEMENT_SET_NO": 999, "REV_AT_EPOCH": 4026, "BSTAR": 0, "MEAN_MOTION_DOT": -2.82e-06, "MEAN_MOTION_DDOT": 0}, "tle": {"line1": "1 40367U 14090A   25359.78917260 -.00000282  00000+0  00000+0 0  9999", "line2": "2 40367   5.1984  74.9353 0001712 171.7159 231.2546  1.00281963 40267"}}, "geometry": {"type": "Point", "coordinates": [-108.25584576228157, 0.2761419375791793]}}, {"type": "Feature", "properties": {"norad_id": 40732, "name": "METEOSAT-11 (MSG-4)", "group": "weather", "lat": 2.7809213800238264, "lon": 161.6304553529701, "alt_km": 35783.75183340449, "timestamp": "2025-12-26T03:50:11.729984+00:00", "meta": {"OBJECT_NAME": "METEOSAT-11 (MSG-4)", "OBJECT_ID": "2015-034A", "EPOCH": "2025-12-25T16:31:52.263840", "MEAN_MOTION": 1.00271545, "ECCENTRICITY": 7e-05, "INCLINATION": 2.7688, "RA_OF_ASC_NODE": 71.966, "ARG_OF_PERICENTER": 136.703, "MEAN_ANOMALY": 142.9271, "EPHEMERIS_TYPE": 0, "CLASSIFICATION_TYPE": "U", "NORAD_CAT_ID": 40732, "ELEMENT_SET_NO": 999, "REV_AT_EPOCH": 547, "BSTAR": 0, "MEAN_MOTION_DOT": 8.2e-07, "MEAN_MOTION_DDOT": 0}, "tle": {"line1": "1 40732U 15034A   25359.68879935  .00000082  00000+0  00000+0 0  9996", "line2": "2 40732   2.7688  71.9660 0000700 136.7030 142.9271  1.00271545  5472"}}, "geometry": {"type": "Point", "coordinates": [161.6304553529701, 2.7809213800238264]}}, {"type": "Feature", "properties": {"norad_id": 41105, "name": "ELEKTRO-L 2", "group": "weather", "lat": 5.699652190566514, "lon": 137.8320333323743, "alt_km": 35797.2378779628, "timestamp": "2025-12-26T03:50:11.729996+00:00", "meta": {"OBJECT_NAME": "ELEKTRO-L 2", "OBJECT_ID": "2015-074A", "EPOCH": "2025-12-24T23:18:12.436992", "MEAN_MOTION": 1.0027204, "ECCENTRICITY": 0.000354, "INCLINATION": 6.2545, "RA_OF_ASC_NODE": 72.6824, "ARG_OF_PERICENTER": 208.1447, "MEAN_ANOMALY": 147.994, "EPHEMERIS_TYPE": 0, "CLASSIFICATION_TYPE": "U", "NORAD_CAT_ID": 41105, "ELEMENT_SET_NO": 999, "REV_AT_EPOCH": 3675, "BSTAR": 0, "MEAN_MOTION_DOT": -9.8e-07, "MEAN_MOTION_DDOT": 0}, "tle": {"line1": "1 41105U 15074A   25358.97097728 -.00000098  00000+0  00000+0 0  9996", "line2": "2 41105   6.2545  72.6824 0003540 208.1447 147.9940  1.00272040 36753"}}, "geometry": {"type": "Point", "coordinates": [137.8320333323743, 5.699652190566514]}}, {"type": "Feature", "properties": {"norad_id": 41752, "name": "INSAT-3DR", "group": "weather", "lat": 0.06792348480492647, "lon": -133.67753083210556, "alt_km": 35743.91520335269, "timestamp": "2025-12-26T03:50:11.730009+00:00", "meta": {"OBJECT_NAME": "INSAT-3DR", "OBJECT_ID": "2016-054A", "EPOCH": "2025-12-24T15:09:51.705216", "MEAN_MOTION": 1.00271379, "ECCENTRICITY": 0.00142635, "INCLINATION": 0.1198, "RA_OF_ASC_NODE": 86.2568, "ARG_OF_PERICENTER": 185.6475, "MEAN_ANOMALY": 122.9543, "EPHEMERIS_TYPE": 0, "CLASSIFICATION_TYPE": "U", "NORAD_CAT_ID": 41752, "ELEMENT_SET_NO": 999, "REV_AT_EPOCH": 3406, "BSTAR": 0, "MEAN_MOTION_DOT": -5.6e-07, "MEAN_MOTION_DDOT": 0}, "tle": {"line1": "1 41752U 16054A   25358.63184844 -.00000056  00000+0  00000+0 0  9996", "line2": "2 41752   0.1198  86.2568 0014263 185.6475 122.9543  1.00271379 34066"}}, "geometry": {"type": "Point", "coordinates": [-133.67753083210556, 0.06792348480492647]}}]}